{"type": "FeatureCollection", "features": [ {"type": "Feature", "properties": {"norad_id": 46271, "name": "COSMOS 2251 DEB", "group": "cosmos-2251-debris", "lat": 63.268197432308845, "lon": -130.12359872320377, "alt_km": 716.8033539921416, "timestamp": "2025-12-09T09:46:48.044325+00:00", "meta": {"OBJECT_NAME": "COSMOS 2251 DEB", "OBJECT_ID": "1993-036BWT", "EPOCH": "2025-12-08T00:10:45.560064", "MEAN_MOTION": 14.51405587, "ECCENTRICITY": 0.00404406, "INCLINATION": 74.0478, "RA_OF_ASC_NODE": 87.1139, "ARG_OF_PERICENTER": 209.4718, "MEAN_ANOMALY": 150.4163, "EPHEMERIS_TYPE": 0, "CLASSIFICATION_TYPE": "U", "NORAD_CAT_ID": 46271, "ELEMENT_SET_NO": 999, "REV_AT_EPOCH": 84573, "BSTAR": 0.00060716032, "MEAN_MOTION_DOT": 2.42e-05, "MEAN_MOTION_DDOT": 0}, "tle": {"line1": "1 46271U 93036BWT 25342.00747176  .00002420  00000+0  60716-3 0  9999", "line2": "2 46271  74.0478  87.1139 0040440 209.4718 150.4163 14.51405587845731"}}, "geometry": {"type": "Point", "coordinates": [-130.12359872320377, 63.268197432308845]}}, {"type": "Feature", "properties": {"norad_id": 46430, "name": "COSMOS 2251 DEB", "group": "cosmos-2251-debris", "lat": 2.2282123894986277, "lon": -177.9684048815957, "alt_km": 743.1387733242245, "timestamp": "2025-12-09T09:46:48.044335+00:00", "meta": {"OBJECT_NAME": "COSMOS 2251 DEB", "OBJECT_ID": "1993-036BWU", "EPOCH": "2025-12-03T09:00:26.936928", "MEAN_MOTION": 14.51043928, "ECCENTRICITY": 0.01031866, "INCLINATION": 73.9151, "RA_OF_ASC_NODE": 14.104, "ARG_OF_PERICENTER": 295.9829, "MEAN_ANOMALY": 63.073, "EPHEMERIS_TYPE": 0, "CLASSIFICATION_TYPE": "U", "NORAD_CAT_ID": 46430, "ELEMENT_SET_NO": 999, "REV_AT_EPOCH": 79547, "BSTAR": 0.0030362826, "MEAN_MOTION_DOT": 0.00012872, "MEAN_MOTION_DDOT": 0}, "tle": {"line1": "1 46430U 93036BWU 25337.37531177  .00012872  00000+0  30363-2 0  9998", "line2": "2 46430  73.9151  14.1040 0103186 295.9829  63.0730 14.51043928795476"}}, "geometry": {"type": "Point", "coordinates": [-177.9684048815957, 2.2282123894986277]}}, {"type": "Feature", "properties": {"norad_id": 46432, "name": "COSMOS 2251 DEB", "group": "cosmos-2251-debris", "lat": -56.65368489771791, "lon": -37.3699684237717, "alt_km": 774.8173861339574, "timestamp": "2025-12-09T09:46:48.044346+00:00", "meta": {"OBJECT_NAME": "COSMOS 2251 DEB", "OBJECT_ID": "1993-036BWW", "EPOCH": "2025-12-08T02:57:47.530656", "MEAN_MOTION": 13.3662099, "ECCENTRICITY": 0.04738148, "INCLINATION": 73.8716, "RA_OF_ASC_NODE": 118.5673, "ARG_OF_PERICENTER": 236.8121, "MEAN_ANOMALY": 306.6861, "EPHEMERIS_TYPE": 0, "CLASSIFICATION_TYPE": "U", "NORAD_CAT_ID": 46432, "ELEMENT_SET_NO": 999, "REV_AT_EPOCH": 66904, "BSTAR": 0.0017999219, "MEAN_MOTION_DOT": 1.75e-05, "MEAN_MOTION_DDOT": 0}, "tle": {"line1": "1 46432U 93036BWW 25342.12346679  .00001750  00000+0  17999-2 0  9993", "line2": "2 46432  73.8716 118.5673 0473814 236.8121 306.6861 13.36620990669048"}}, "geometry": {"type": "Point", "coordinates": [-37.3699684237717, -56.65368489771791]}}, {"type": "Feature", "properties": {"norad_id": 47045, "name": "COSMOS 2251 DEB", "group": "cosmos-2251-debris", "lat": 40.09426883952328, "lon": -38.62334857993507, "alt_km": 778.7966775539107, "timestamp": "2025-12-09T09:46:48.044357+00:00", "meta": {"OBJECT_NAME": "COSMOS 2251 DEB", "OBJECT_ID": "1993-036BWZ", "EPOCH": "2025-12-08T18:12:30.966336", "MEAN_MOTION": 14.3889696, "ECCENTRICITY": 0.00302024, "INCLINATION": 74.0568, "RA_OF_ASC_NODE": 156.4972, "ARG_OF_PERICENTER": 298.2595, "MEAN_ANOMALY": 80.2379, "EPHEMERIS_TYPE": 0, "CLASSIFICATION_TYPE": "U", "NORAD_CAT_ID": 47045, "ELEMENT_SET_NO": 999, "REV_AT_EPOCH": 7748, "BSTAR": 0.00016053941, "MEAN_MOTION_DOT": 4.71e-06, "MEAN_MOTION_DDOT": 0}, "tle": {"line1": "1 47045U 93036BWZ 25342.75869174  .00000471  00000+0  16054-3 0  9994", "line2": "2 47045  74.0568 156.4972 0030202 298.2595  80.2379 14.38896960 77482"}}, "geometry": {"type": "Point", "coordinates": [-38.62334857993507, 40.09426883952328]}}, {"type": "Feature", "properties": {"norad_id": 47048, "name": "COSMOS 2251 DEB", "group": "cosmos-2251-debris", "lat": -73.28661877945544, "lon": -141.37795209833772, "alt_km": 757.7894539330782, "timestamp": "2025-12-09T09:46:48.044367+00:00", "meta": {"OBJECT_NAME": "COSMOS 2251 DEB", "OBJECT_ID": "1993-036BXC", "EPOCH": "2025-12-07T07:15:38.269728", "MEAN_MOTION": 14.52229932, "ECCENTRICITY": 0.0133232, "INCLINATION": 73.9782, "RA_OF_ASC_NODE": 329.4737, "ARG_OF_PERICENTER": 158.8085, "MEAN_ANOMALY": 264.4528, "EPHEMERIS_TYPE": 0, "CLASSIFICATION_TYPE": "U", "NORAD_CAT_ID": 47048, "ELEMENT_SET_NO": 999, "REV_AT_EPOCH": 59611, "BSTAR": 0.0016547605, "MEAN_MOTION_DOT": 7.524e-05, "MEAN_MOTION_DDOT": 0}, "tle": {"line1": "1 47048U 93036BXC 25341.30252627  .00007524  00000+0  16548-2 0  9999", "line2": "2 47048  73.9782 329.4737 0133232 158.8085 264.4528 14.52229932596117"}}, "geometry": {"type": "Point", "coordinates": [-141.37795209833772, -73.28661877945544]}}, {"type": "Feature", "properties": {"norad_id": 47051, "name": "COSMOS 2251 DEB", "group": "cosmos-2251-debris", "lat": 13.805535729034398, "lon": 5.021061505747799, "alt_km": 1193.1118987676964, "timestamp": "2025-12-09T09:46:48.044378+00:00", "meta": {"OBJECT_NAME": "COSMOS 2251 DEB", "OBJECT_ID": "1993-036BXF", "EPOCH": "2025-12-07T08:40:13.029888", "MEAN_MOTION": 13.67092269, "ECCENTRICITY": 0.03407698, "INCLINATION": 74.1016, "RA_OF_ASC_NODE": 192.3794, "ARG_OF_PERICENTER": 307.1463, "MEAN_ANOMALY": 234.2047, "EPHEMERIS_TYPE": 0, "CLASSIFICATION_TYPE": "U", "NORAD_CAT_ID": 47051, "ELEMENT_SET_NO": 999, "REV_AT_EPOCH": 59864, "BSTAR": 0.0022022876, "MEAN_MOTION_DOT": 2.731e-05, "MEAN_MOTION_DDOT": 0}, "tle": {"line1": "1 47051U 93036BXF 25341.36126192  .00002731  00000+0  22023-2 0  9996", "line2": "2 47051  74.1016 192.3794 0340769 307.1463 234.2047 13.67092269598645"}}, "geometry": {"type": "Point", "coordinates": [5.021061505747799, 13.805535729034398]}}, {"type": "Feature", "properties": {"norad_id": 47052, "name": "COSMOS 2251 DEB", "group": "cosmos-2251-debris", "lat": 45.9514727892185, "lon": 149.24016808191075, "alt_km": 754.6516026288573, "timestamp": "2025-12-09T09:46:48.044410+00:00", "meta": {"OBJECT_NAME": "COSMOS 2251 DEB", "OBJECT_ID": "1993-036BXG", "EPOCH": "2025-12-05T19:01:13.155168", "MEAN_MOTION": 14.35464627, "ECCENTRICITY": 0.00577854, "INCLINATION": 74.049, "RA_OF_ASC_NODE": 353.0607, "ARG_OF_PERICENTER": 69.2726, "MEAN_ANOMALY": 108.045, "EPHEMERIS_TYPE": 0, "CLASSIFICATION_TYPE": "U", "NORAD_CAT_ID": 47052, "ELEMENT_SET_NO": 999, "REV_AT_EPOCH": 61689, "BSTAR": 0.00041416194, "MEAN_MOTION_DOT": 1.188e-05, "MEAN_MOTION_DDOT": 0}, "tle": {"line1": "1 47052U 93036BXG 25339.79251337  .00001188  00000+0  41416-3 0  9994", "line2": "2 47052  74.0490 353.0607 0057785  69.2726 108.0450 14.35464627616892"}}, "geometry": {"type": "Point", "coordinates": [149.24016808191075, 45.9514727892185]}}, {"type": "Feature", "properties": {"norad_id": 47053, "name": "COSMOS 2251 DEB", "group": "cosmos-2251-debris", "lat": 73.80848578779346, "lon": -0.3620738634966377, "alt_km": 764.6957223858462, "timestamp": "2025-12-09T09:46:48.044422+00:00", "meta": {"OBJECT_NAME": "COSMOS 2251 DEB", "OBJECT_ID": "1993-036BXH", "EPOCH": "2025-12-08T01:39:48.955968", "MEAN_MOTION": 13.59644557, "ECCENTRICITY": 0.03763354, "INCLINATION": 74.0598, "RA_OF_ASC_NODE": 261.6153, "ARG_OF_PERICENTER": 76.2137, "MEAN_ANOMALY": 307.6459, "EPHEMERIS_TYPE": 0, "CLASSIFICATION_TYPE": "U", "NORAD_CAT_ID": 47053, "ELEMENT_SET_NO": 999, "REV_AT_EPOCH": 28825, "BSTAR": 0.0018736662, "MEAN_MOTION_DOT": 2.199e-05, "MEAN_MOTION_DDOT": 0}, "tle": {"line1": "1 47053U 93036BXH 25342.06931662  .00002199  00000+0  18737-2 0  9997", "line2": "2 47053  74.0598 261.6153 0376335  76.2137 307.6459 13.59644557288259"}}, "geometry": {"type": "Point", "coordinates": [-0.3620738634966377, 73.80848578779346]}}, {"type": "Feature", "properties": {"norad_id": 47059, "name": "COSMOS 2251 DEB", "group": "cosmos-2251-debris", "lat": -73.58518406530968, "lon": 165.1722225298881, "alt_km": 542.3305111629325, "timestamp": "2025-12-09T09:46:48.044433+00:00", "meta": {"OBJECT_NAME": "COSMOS 2251 DEB", "OBJECT_ID": "1993-036BXP", "EPOCH": "2025-12-06T03:03:53.254944", "MEAN_MOTION": 15.11824975, "ECCENTRICITY": 0.0012241, "INCLINATION": 73.9837, "RA_OF_ASC_NODE": 249.1614, "ARG_OF_PERICENTER": 60.0281, "MEAN_ANOMALY": 7.7142, "EPHEMERIS_TYPE": 0, "CLASSIFICATION_TYPE": "U", "NORAD_CAT_ID": 47059, "ELEMENT_SET_NO": 999, "REV_AT_EPOCH": 8205, "BSTAR": 0.0045995756, "MEAN_MOTION_DOT": 0.00079589, "MEAN_MOTION_DDOT": 0}, "tle": {"line1": "1 47059U 93036BXP 25340.12769971  .00079589  00000+0  45996-2 0  9994", "line2": "2 47059  73.9837 249.1614 0012241  60.0281   7.7142 15.11824975 82057"}}, "geometry": {"type": "Point", "coordinates": [165.1722225298881, -73.58518406530968]}}, {"type": "Feature", "properties": {"norad_id": 47062, "name": "COSMOS 2251 DEB", "group": "cosmos-2251-debris", "lat": -15.788744423630249, "lon": -91.6998293063413, "alt_km": 764.9950151943613, "timestamp": "2025-12-09T09:46:48.044444+00:00", "meta": {"OBJECT_NAME": "COSMOS 2251 DEB", "OBJECT_ID": "1993-036BXS", "EPOCH": "2025-12-07T13:07:54.059808", "MEAN_MOTION": 13.71915602, "ECCENTRICITY": 0.03234523, "INCLINATION": 74.0847, "RA_OF_ASC_NODE": 86.7391, "ARG_OF_PERICENTER": 213.5714, "MEAN_ANOMALY": 158.9974, "EPHEMERIS_TYPE": 0, "CLASSIFICATION_TYPE": "U", "NORAD_CAT_ID": 47062, "ELEMENT_SET_NO": 999, "REV_AT_EPOCH": 55531, "BSTAR": 0.0031720462, "MEAN_MOTION_DOT": 4.156e-05, "MEAN_MOTION_DDOT": 0}, "tle": {"line1": "1 47062U 93036BXS 25341.54715347  .00004156  00000+0  31720-2 0  9991", "line2": "2 47062  74.0847  86.7391 0323452 213.5714 158.9974 13.71915602555314"}}, "geometry": {"type": "Point", "coordinates": [-91.6998293063413, -15.788744423630249]}}]}